NORAD_CAT_ID,OBJECT_NAME,OBJECT_TYPE,EPOCH,MEAN_MOTION,ECCENTRICITY,INCLINATION,RA_OF_ASC_NODE,ARG_OF_PERICENTER,MEAN_ANOMALY,BSTAR,MEAN_MOTION_DOT,MEAN_MOTION_DDOT,TLE_LINE0,TLE_LINE1,TLE_LINE2,SEMIMAJOR_AXIS,PERIOD,APOGEE,PERIGEE,DECAYED
51867.0,STARLINK-3590,PAYLOAD,2023-06-03 11:13:58,15.08836584,9.28e-05,53.2162,224.1832,86.7063,273.4035,8.5575e-06,-1.52e-06,0.0,0 STARLINK-3590,1 51867U 22022R   23154.46803566 -.00000152  00000-0  85575-5 0  9992,2 51867  53.2162 224.1832 0000928  86.7063 273.4035 15.08836584 70604,6917.891,95.438,540.398,539.114,0.0
51867.0,STARLINK-3590,PAYLOAD,2023-06-04 09:29:21,15.0884122,9.03e-05,53.2164,220.0201,86.5832,273.5264,8.4059e-05,1.05e-05,0.0,0 STARLINK-3590,1 51867U 22022R   23155.39539120  .00001050  00000-0  84059-4 0  9999,2 51867  53.2164 220.0201 0000903  86.5832 273.5264 15.08841220 70749,6917.877,95.437,540.366,539.117,0.0
51867.0,STARLINK-3590,PAYLOAD,2023-06-04 11:04:44,15.08842995,8.89e-05,53.2163,219.7225,94.328,265.7814,8.2467e-05,1.025e-05,0.0,0 STARLINK-3590,1 51867U 22022R   23155.46162965  .00001025  00000-0  82467-4 0  9999,2 51867  53.2163 219.7225 0000889  94.3280 265.7814 15.08842995 70751,6917.871,95.437,540.351,539.121,0.0
51867.0,STARLINK-3590,PAYLOAD,2023-06-05 10:55:31,15.08841764,9.7e-05,53.2159,215.2621,78.661,281.4491,8.9069e-05,1.13e-05,0.0,0 STARLINK-3590,1 51867U 22022R   23156.45523088  .00001130  00000-0  89069-4 0  9998,2 51867  53.2159 215.2621 0000970  78.6610 281.4491 15.08841764 70906,6917.875,95.437,540.411,539.069,0.0
51867.0,STARLINK-3590,PAYLOAD,2023-06-06 01:14:00,15.08831159,9.33e-05,53.2163,212.5859,85.144,274.9658,3.587e-05,2.83e-06,0.0,0 STARLINK-3590,1 51867U 22022R   23157.05139902  .00000283  00000-0  35870-4 0  9992,2 51867  53.2163 212.5859 0000933  85.1440 274.9658 15.08831159 70995,6917.907,95.438,540.418,539.127,0.0
51867.0,STARLINK-3590,PAYLOAD,2023-06-06 09:10:56,15.08834673,9.28e-05,53.2164,211.1003,76.8532,283.2564,-1.3235e-05,-4.98e-06,0.0,0 STARLINK-3590,1 51867U 22022R   23157.38259977 -.00000498  00000-0 -13235-4 0  9994,2 51867  53.2164 211.1003 0000928  76.8532 283.2564 15.08834673 71045,6917.897,95.438,540.404,539.12,0.0
51867.0,STARLINK-3590,PAYLOAD,2023-06-07 02:40:10,15.08837896,9.35e-05,53.2163,207.8289,86.3399,273.77,1.6194e-05,-3e-07,0.0,0 STARLINK-3590,1 51867U 22022R   23158.11123760 -.00000030  00000-0  16194-4 0  9994,2 51867  53.2163 207.8289 0000935  86.3399 273.7700 15.08837896 71155,6917.887,95.438,540.399,539.105,0.0
51867.0,STARLINK-3590,PAYLOAD,2023-06-07 12:12:29,15.08842171,9.5e-05,53.2162,206.0448,81.6314,278.4785,4.8068e-05,4.77e-06,0.0,0 STARLINK-3590,1 51867U 22022R   23158.50867420  .00000477  00000-0  48068-4 0  9994,2 51867  53.2162 206.0448 0000950  81.6314 278.4785 15.08842171 71218,6917.874,95.437,540.396,539.082,0.0
51867.0,STARLINK-3590,PAYLOAD,2023-06-07 20:09:25,15.08837808,9.66e-05,53.216,204.5581,91.4483,268.662,5.1157e-05,5.26e-06,0.0,0 STARLINK-3590,1 51867U 22022R   23158.83987690  .00000526  00000-0  51157-4 0  9990,2 51867  53.2160 204.5581 0000966  91.4483 268.6620 15.08837808 71265,6917.887,95.438,540.42,539.084,0.0
51867.0,STARLINK-3590,PAYLOAD,2023-06-08 08:52:30,15.08835895,9.78e-05,53.2161,202.1791,89.6236,270.4868,7.0009e-05,8.27e-06,0.0,0 STARLINK-3590,1 51867U 22022R   23159.36979909  .00000827  00000-0  70009-4 0  9994,2 51867  53.2161 202.1791 0000978  89.6236 270.4868 15.08835895 71349,6917.893,95.438,540.435,539.081,0.0
51867.0,STARLINK-3590,PAYLOAD,2023-06-08 12:03:16,15.0883731,9.85e-05,53.216,201.5843,88.9208,271.1897,7.8759e-05,9.66e-06,0.0,0 STARLINK-3590,1 51867U 22022R   23159.50227821  .00000966  00000-0  78759-4 0  9993,2 51867  53.2160 201.5843 0000985  88.9208 271.1897 15.08837310 71364,6917.889,95.438,540.435,539.072,0.0
51867.0,STARLINK-3590,PAYLOAD,2023-06-09 10:18:40,15.08844556,0.0001013,53.2159,197.4205,88.5582,271.5526,6.8382e-05,8.01e-06,0.0,0 STARLINK-3590,1 51867U 22022R   23160.42963371  .00000801  00000-0  68382-4 0  9992,2 51867  53.2159 197.4205 0001013  88.5582 271.5526 15.08844556 71500,6917.866,95.437,540.432,539.031,0.0
51867.0,STARLINK-3590,PAYLOAD,2023-06-09 19:50:59,15.08839529,9.93e-05,53.2157,195.6363,88.7749,271.3356,-5.6596e-05,-1.188e-05,0.0,0 STARLINK-3590,1 51867U 22022R   23160.82708019 -.00001188  00000-0 -56596-4 0  9997,2 51867  53.2157 195.6363 0000993  88.7749 271.3356 15.08839529 71565,6917.882,95.438,540.434,539.06,0.0
51867.0,STARLINK-3590,PAYLOAD,2023-06-10 03:47:55,15.08831186,9.97e-05,53.2157,194.1493,87.2484,272.8622,-1.6164e-05,-5.45e-06,0.0,0 STARLINK-3590,1 51867U 22022R   23161.15828568 -.00000545  00000-0 -16164-4 0  9999,2 51867  53.2157 194.1493 0000997  87.2484 272.8622 15.08831186 71616,6917.907,95.438,540.462,539.083,0.0
51867.0,STARLINK-3590,PAYLOAD,2023-06-10 08:34:05,15.08830765,0.0001007,53.2157,193.2572,86.6854,273.4253,-2.0417e-05,-6.13e-06,0.0,0 STARLINK-3590,1 51867U 22022R   23161.35700697 -.00000613  00000-0 -20417-4 0  9995,2 51867  53.2157 193.2572 0001007  86.6854 273.4253 15.08830765 71643,6917.909,95.438,540.47,539.077,0.0
51867.0,STARLINK-3590,PAYLOAD,2023-06-11 11:35:38,15.08840294,0.0001041,53.2157,188.2028,78.0023,282.1086,2.6755e-05,1.38e-06,0.0,0 STARLINK-3590,1 51867U 22022R   23162.48308241  .00000138  00000-0  26755-4 0  9990,2 51867  53.2157 188.2028 0001041  78.0023 282.1086 15.08840294 71812,6917.879,95.438,540.465,539.024,0.0
51867.0,STARLINK-3590,PAYLOAD,2023-06-12 08:15:38,15.08840492,0.0001039,53.2159,184.3371,74.2551,285.8555,0.00014273,1.985e-05,0.0,0 STARLINK-3590,1 51867U 22022R   23163.34419925  .00001985  00000-0  14273-3 0  9990,2 51867  53.2159 184.3371 0001039  74.2551 285.8555 15.08840492 71948,6917.879,95.438,540.463,539.025,0.0
51867.0,STARLINK-3590,PAYLOAD,2023-06-12 17:47:57,15.08838692,9.89e-05,53.2155,182.5524,68.8571,291.2527,7.8157e-05,9.56e-06,0.0,0 STARLINK-3590,1 51867U 22022R   23163.74164241  .00000956  00000-0  78157-4 0  9991,2 51867  53.2155 182.5524 0000989  68.8571 291.2527 15.08838692 72005,6917.884,95.438,540.434,539.065,0.0
51867.0,STARLINK-3590,PAYLOAD,2023-06-13 01:44:53,15.08838395,0.0001042,53.2156,181.0663,72.495,287.6155,1.5367e-05,-4.3e-07,0.0,0 STARLINK-3590,1 51867U 22022R   23164.07284556 -.00000043  00000-0  15367-4 0  9992,2 51867  53.2156 181.0663 0001042  72.4950 287.6155 15.08838395 72058,6917.885,95.438,540.471,539.029,0.0
51867.0,STARLINK-3590,PAYLOAD,2023-06-13 17:38:45,15.08837776,0.0001074,53.2158,178.0927,72.2048,287.9061,-3.996e-07,-2.94e-06,0.0,0 STARLINK-3590,1 51867U 22022R   23164.73524678 -.00000294  00000-0 -39960-6 0  9993,2 51867  53.2158 178.0927 0001074  72.2048 287.9061 15.08837776 72152,6917.887,95.438,540.495,539.009,0.0
51867.0,STARLINK-3590,PAYLOAD,2023-06-14 00:00:17,15.08839578,0.0001089,53.2159,176.9032,73.0396,287.0715,4.833e-06,-2.11e-06,0.0,0 STARLINK-3590,1 51867U 22022R   23165.00020559 -.00000211  00000-0  48330-5 0  9991,2 51867  53.2159 176.9032 0001089  73.0396 287.0715 15.08839578 72191,6917.882,95.438,540.5,538.993,0.0
51867.0,STARLINK-3590,PAYLOAD,2023-06-14 09:32:36,15.08840386,0.00011,53.216,175.119,72.5685,287.5428,-6.0337e-06,-3.84e-06,0.0,0 STARLINK-3590,1 51867U 22022R   23165.39764559 -.00000384  00000-0 -60337-5 0  9991,2 51867  53.2160 175.1190 0001100  72.5685 287.5428 15.08840386 72250,6917.879,95.438,540.505,538.983,0.0
51867.0,STARLINK-3590,PAYLOAD,2023-06-14 17:29:32,15.08837333,0.000111,53.2161,173.6322,71.9818,288.1295,-1.0595e-06,-3.05e-06,0.0,0 STARLINK-3590,1 51867U 22022R   23165.72884757 -.00000305  00000-0 -10595-5 0  9995,2 51867  53.2161 173.6322 0001110  71.9818 288.1295 15.08837333 72306,6917.889,95.438,540.521,538.986,0.0
51867.0,STARLINK-3590,PAYLOAD,2023-06-15 01:26:28,15.0883459,0.0001071,53.2163,172.1444,78.955,281.1562,3.4155e-05,2.56e-06,0.0,0 STARLINK-3590,1 51867U 22022R   23166.06004850  .00000256  00000-0  34155-4 0  9991,2 51867  53.2163 172.1444 0001071  78.9550 281.1562 15.08834590 72350,6917.897,95.438,540.503,539.021,0.0
51867.0,STARLINK-3590,PAYLOAD,2023-06-15 07:48:00,15.0883619,0.0001083,53.2164,170.955,78.7994,281.312,3.9283e-05,3.37e-06,0.0,0 STARLINK-3590,1 51867U 22022R   23166.32500813  .00000337  00000-0  39283-4 0  9997,2 51867  53.2164 170.9550 0001083  78.7994 281.3120 15.08836190 72392,6917.892,95.438,540.506,539.008,0.0
51867.0,STARLINK-3590,PAYLOAD,2023-06-15 17:20:19,15.0883728,0.0001102,53.2165,169.1707,76.8191,283.2924,4.7685e-05,4.71e-06,0.0,0 STARLINK-3590,1 51867U 22022R   23166.72244811  .00000471  00000-0  47685-4 0  9998,2 51867  53.2165 169.1707 0001102  76.8191 283.2924 15.08837280 72458,6917.889,95.438,540.516,538.991,0.0
51867.0,STARLINK-3590,PAYLOAD,2023-06-16 09:14:10,15.08843566,0.0001126,53.2164,166.1968,76.141,283.9708,8.0615e-05,9.96e-06,0.0,0 STARLINK-3590,1 51867U 22022R   23167.38484324  .00000996  00000-0  80615-4 0  9998,2 51867  53.2164 166.1968 0001126  76.1410 283.9708 15.08843566 72558,6917.869,95.437,540.513,538.956,0.0
51867.0,STARLINK-3590,PAYLOAD,2023-06-16 17:11:06,15.08839466,0.0001134,53.2165,164.7105,76.1584,283.9534,4.7413e-05,4.67e-06,0.0,0 STARLINK-3590,1 51867U 22022R   23167.71604668  .00000467  00000-0  47413-4 0  9992,2 51867  53.2165 164.7105 0001134  76.1584 283.9534 15.08839466 72604,6917.882,95.438,540.532,538.963,0.0
51867.0,STARLINK-3590,PAYLOAD,2023-06-17 09:04:58,15.08836383,0.0001089,53.2158,161.7374,77.6033,282.5081,1.6181e-05,-3e-07,0.0,0 STARLINK-3590,1 51867U 22022R   23168.37845078 -.00000030  00000-0  16181-4 0  9992,2 51867  53.2158 161.7374 0001089  77.6033 282.5081 15.08836383 72703,6917.891,95.438,540.51,539.003,0.0
51867.0,STARLINK-3590,PAYLOAD,2023-06-17 17:01:53,15.08839469,0.0001107,53.2159,160.2509,76.7631,283.3485,3.4599e-05,2.63e-06,0.0,0 STARLINK-3590,1 51867U 22022R   23168.70964841  .00000263  00000-0  34599-4 0  9999,2 51867  53.2159 160.2509 0001107  76.7631 283.3485 15.08839469 72753,6917.882,95.438,540.513,538.981,0.0
